[Satellite]
VERSION=1.1
NAME=CZ-4B R/B
NICKNAME=CZ-4B R/B
TLE1=1 29507U 06046C   18021.11878107  .00000895  00000-0  74689-4 0  9994
TLE2=2 29507  97.7884  33.8118 0051406 232.9489 126.7027 15.00246974613716
